{
  "type": "FeatureCollection",
  "features": [
    {
      "type": "Feature",
      "properties": {
        "norad_id": 55973,
        "name": "TIANMU-1 03",
        "group": "weather",
        "lat": -75.25908340489815,
        "lon": -53.29469619948828,
        "alt_km": 452.37190427517726,
        "timestamp": "2025-12-19T22:41:52.021764+00:00",
        "meta_object_name": "TIANMU-1 03",
        "meta_object_id": "2023-039A",
        "meta_epoch": "2025-12-19T18:28:05.280384",
        "meta_mean_motion": 15.41117594,
        "meta_eccentricity": 0.0004102,
        "meta_inclination": 97.5102,
        "meta_ra_of_asc_node": 156.618,
        "meta_arg_of_pericenter": 40.8644,
        "meta_mean_anomaly": 319.2909,
        "meta_ephemeris_type": 0,
        "meta_classification_type": "U",
        "meta_norad_cat_id": 55973,
        "meta_element_set_no": 999,
        "meta_rev_at_epoch": 15314,
        "meta_bstar": 0.00026572,
        "meta_mean_motion_dot": 0.00010917,
        "meta_mean_motion_ddot": 0,
        "tle_line1": "1 55973U 23039A   25353.76950556  .00010917  00000+0  26572-3 0  9999",
        "tle_line2": "2 55973  97.5102 156.6180 0004102  40.8644 319.2909 15.41117594153140"
      },
      "geometry": {
        "type": "Point",
        "coordinates": [
          -53.29469619948828,
          -75.25908340489815
        ]
      }
    },
    {
      "type": "Feature",
      "properties": {
        "norad_id": 55974,
        "name": "TIANMU-1 04",
        "group": "weather",
        "lat": 19.719025993397903,
        "lon": 153.27941870195693,
        "alt_km": 438.8977364206403,
        "timestamp": "2025-12-19T22:41:52.021780+00:00",
        "meta_object_name": "TIANMU-1 04",
        "meta_object_id": "2023-039B",
        "meta_epoch": "2025-12-19T17:56:16.338912",
        "meta_mean_motion": 15.41457885,
        "meta_eccentricity": 0.0004722,
        "meta_inclination": 97.5035,
        "meta_ra_of_asc_node": 155.7835,
        "meta_arg_of_pericenter": 35.1277,
        "meta_mean_anomaly": 325.028,
        "meta_ephemeris_type": 0,
        "meta_classification_type": "U",
        "meta_norad_cat_id": 55974,
        "meta_element_set_no": 999,
        "meta_rev_at_epoch": 15314,
        "meta_bstar": 0.00026927,
        "meta_mean_motion_dot": 0.00011191,
        "meta_mean_motion_ddot": 0,
        "tle_line1": "1 55974U 23039B   25353.74741133  .00011191  00000+0  26927-3 0  9996",
        "tle_line2": "2 55974  97.5035 155.7835 0004722  35.1277 325.0280 15.41457885153147"
      },
      "geometry": {
        "type": "Point",
        "coordinates": [
          153.27941870195693,
          19.719025993397903
        ]
      }
    },
    {
      "type": "Feature",
      "properties": {
        "norad_id": 55975,
        "name": "TIANMU-1 05",
        "group": "weather",
        "lat": 41.50017623024738,
        "lon": 149.77888725380808,
        "alt_km": 436.946825510121,
        "timestamp": "2025-12-19T22:41:52.021799+00:00",
        "meta_object_name": "TIANMU-1 05",
        "meta_object_id": "2023-039C",
        "meta_epoch": "2025-12-19T17:50:29.126688",
        "meta_mean_motion": 15.41074474,
        "meta_eccentricity": 0.0004156,
        "meta_inclination": 97.5082,
        "meta_ra_of_asc_node": 156.272,
        "meta_arg_of_pericenter": 59.1615,
        "meta_mean_anomaly": 301.0039,
        "meta_ephemeris_type": 0,
        "meta_classification_type": "U",
        "meta_norad_cat_id": 55975,
        "meta_element_set_no": 999,
        "meta_rev_at_epoch": 15312,
        "meta_bstar": 0.00027258,
        "meta_mean_motion_dot": 0.00011185,
        "meta_mean_motion_ddot": 0,
        "tle_line1": "1 55975U 23039C   25353.74339267  .00011185  00000+0  27258-3 0  9999",
        "tle_line2": "2 55975  97.5082 156.2720 0004156  59.1615 301.0039 15.41074474153125"
      },
      "geometry": {
        "type": "Point",
        "coordinates": [
          149.77888725380808,
          41.50017623024738
        ]
      }
    },
    {
      "type": "Feature",
      "properties": {
        "norad_id": 55976,
        "name": "TIANMU-1 06",
        "group": "weather",
        "lat": 9.076663767767457,
        "lon": 155.74343989850172,
        "alt_km": 441.29962572353816,
        "timestamp": "2025-12-19T22:41:52.021816+00:00",
        "meta_object_name": "TIANMU-1 06",
        "meta_object_id": "2023-039D",
        "meta_epoch": "2025-12-19T17:59:03.939360",
        "meta_mean_motion": 15.41509609,
        "meta_eccentricity": 0.0004446,
        "meta_inclination": 97.5093,
        "meta_ra_of_asc_node": 156.749,
        "meta_arg_of_pericenter": 53.6063,
        "meta_mean_anomaly": 306.5593,
        "meta_ephemeris_type": 0,
        "meta_classification_type": "U",
        "meta_norad_cat_id": 55976,
        "meta_element_set_no": 999,
        "meta_rev_at_epoch": 15314,
        "meta_bstar": 0.00026987,
        "meta_mean_motion_dot": 0.00011235,
        "meta_mean_motion_ddot": 0,
        "tle_line1": "1 55976U 23039D   25353.74935115  .00011235  00000+0  26987-3 0  9998",
        "tle_line2": "2 55976  97.5093 156.7490 0004446  53.6063 306.5593 15.41509609153145"
      },
      "geometry": {
        "type": "Point",
        "coordinates": [
          155.74343989850172,
          9.076663767767457
        ]
      }
    },
    {
      "type": "Feature",
      "properties": {
        "norad_id": 56232,
        "name": "FENGYUN 3G",
        "group": "weather",
        "lat": 46.78603748354215,
        "lon": -53.12562126983096,
        "alt_km": 396.45521506892237,
        "timestamp": "2025-12-19T22:41:52.021832+00:00",
        "meta_object_name": "FENGYUN 3G",
        "meta_object_id": "2023-055A",
        "meta_epoch": "2025-12-19T17:36:21.504672",
        "meta_mean_motion": 15.54041911,
        "meta_eccentricity": 0.0009364,
        "meta_inclination": 49.9918,
        "meta_ra_of_asc_node": 191.3527,
        "meta_arg_of_pericenter": 180.0661,
        "meta_mean_anomaly": 180.0307,
        "meta_ephemeris_type": 0,
        "meta_classification_type": "U",
        "meta_norad_cat_id": 56232,
        "meta_element_set_no": 999,
        "meta_rev_at_epoch": 15211,
        "meta_bstar": 0.00032368,
        "meta_mean_motion_dot": 0.00021005,
        "meta_mean_motion_ddot": 0,
        "tle_line1": "1 56232U 23055A   25353.73358223  .00021005  00000+0  32368-3 0  9996",
        "tle_line2": "2 56232  49.9918 191.3527 0009364 180.0661 180.0307 15.54041911152112"
      },
      "geometry": {
        "type": "Point",
        "coordinates": [
          -53.12562126983096,
          46.78603748354215
        ]
      }
    },
    {
      "type": "Feature",
      "properties": {
        "norad_id": 57166,
        "name": "METEOR-M2 3",
        "group": "weather",
        "lat": 81.10695887055459,
        "lon": -28.895202771409117,
        "alt_km": 804.768772444625,
        "timestamp": "2025-12-19T22:41:52.021851+00:00",
        "meta_object_name": "METEOR-M2 3",
        "meta_object_id": "2023-091A",
        "meta_epoch": "2025-12-19T18:54:50.796288",
        "meta_mean_motion": 14.24026888,
        "meta_eccentricity": 0.0003504,
        "meta_inclination": 98.6368,
        "meta_ra_of_asc_node": 47.2041,
        "meta_arg_of_pericenter": 347.8957,
        "meta_mean_anomaly": 12.2137,
        "meta_ephemeris_type": 0,
        "meta_classification_type": "U",
        "meta_norad_cat_id": 57166,
        "meta_element_set_no": 999,
        "meta_rev_at_epoch": 12898,
        "meta_bstar": 2.4226e-05,
        "meta_mean_motion_dot": 1.2e-07,
        "meta_mean_motion_ddot": 0,
        "tle_line1": "1 57166U 23091A   25353.78808792  .00000012  00000+0  24226-4 0  9999",
        "tle_line2": "2 57166  98.6368  47.2041 0003504 347.8957  12.2137 14.24026888128987"
      },
      "geometry": {
        "type": "Point",
        "coordinates": [
          -28.895202771409117,
          81.10695887055459
        ]
      }
    },
    {
      "type": "Feature",
      "properties": {
        "norad_id": 57399,
        "name": "TIANMU-1 07",
        "group": "weather",
        "lat": 82.66840977007323,
        "lon": -52.355150935840996,
        "alt_km": 470.5896366906918,
        "timestamp": "2025-12-19T22:41:52.021867+00:00",
        "meta_object_name": "TIANMU-1 07",
        "meta_object_id": "2023-101A",
        "meta_epoch": "2025-12-19T17:35:16.480032",
        "meta_mean_motion": 15.28165715,
        "meta_eccentricity": 0.0005321,
        "meta_inclination": 97.2869,
        "meta_ra_of_asc_node": 43.4287,
        "meta_arg_of_pericenter": 63.7458,
        "meta_mean_anomaly": 296.4328,
        "meta_ephemeris_type": 0,
        "meta_classification_type": "U",
        "meta_norad_cat_id": 57399,
        "meta_element_set_no": 999,
        "meta_rev_at_epoch": 13422,
        "meta_bstar": 0.00018991,
        "meta_mean_motion_dot": 5.142e-05,
        "meta_mean_motion_ddot": 0,
        "tle_line1": "1 57399U 23101A   25353.73282963  .00005142  00000+0  18991-3 0  9990",
        "tle_line2": "2 57399  97.2869  43.4287 0005321  63.7458 296.4328 15.28165715134225"
      },
      "geometry": {
        "type": "Point",
        "coordinates": [
          -52.355150935840996,
          82.66840977007323
        ]
      }
    }
  ]
}